NORAD_CAT_ID,OBJECT_NAME,OBJECT_TYPE,EPOCH,MEAN_MOTION,ECCENTRICITY,INCLINATION,RA_OF_ASC_NODE,ARG_OF_PERICENTER,MEAN_ANOMALY,BSTAR,MEAN_MOTION_DOT,MEAN_MOTION_DDOT,TLE_LINE0,TLE_LINE1,TLE_LINE2,SEMIMAJOR_AXIS,PERIOD,APOGEE,PERIGEE,DECAYED
52843.0,STARLINK-4188,PAYLOAD,2023-11-08 03:28:23,15.08852654,0.0001401,53.2161,261.3433,92.4222,267.6931,0.0021672,0.00034384,0.0,0 STARLINK-4188,1 52843U 22062P   23312.14471127  .00034384  00000-0  21672-2 0  9994,2 52843  53.2161 261.3433 0001401  92.4222 267.6931 15.08852654 77575,6917.842,95.437,540.676,538.738,0.0
52843.0,STARLINK-4188,PAYLOAD,2023-11-09 03:19:09,15.08854556,0.0001359,53.2158,256.8854,98.691,261.4236,0.00047858,7.34e-05,0.0,0 STARLINK-4188,1 52843U 22062P   23313.13830647  .00007340  00000-0  47858-3 0  9997,2 52843  53.2158 256.8854 0001359  98.6910 261.4236 15.08854556 77721,6917.836,95.437,540.641,538.761,0.0
52843.0,STARLINK-4188,PAYLOAD,2023-11-09 06:29:55,15.08859754,0.0001416,53.2162,256.2886,95.051,265.0644,0.00053933,8.31e-05,0.0,0 STARLINK-4188,1 52843U 22062P   23313.27078402  .00008310  00000-0  53933-3 0  9994,2 52843  53.2162 256.2886 0001416  95.0510 265.0644 15.08859754 77252,6917.82,95.436,540.665,538.705,0.0
52843.0,STARLINK-4188,PAYLOAD,2023-11-10 03:09:56,15.08839817,0.0001314,53.2159,252.4253,91.4573,268.6569,6.8339e-06,-1.79e-06,0.0,0 STARLINK-4188,1 52843U 22062P   23314.13190970 -.00000179  00000-0  68339-5 0  9999,2 52843  53.2159 252.4253 0001314  91.4573 268.6569 15.08839817 77871,6917.881,95.438,540.655,538.837,0.0
52843.0,STARLINK-4188,PAYLOAD,2023-11-10 12:42:15,15.08840191,0.0001297,53.2157,250.6411,98.197,261.917,7.5136e-05,9.08e-06,0.0,0 STARLINK-4188,1 52843U 22062P   23314.52935010  .00000908  00000-0  75136-4 0  9995,2 52843  53.2157 250.6411 0001297  98.1970 261.9170 15.08840191 77444,6917.88,95.438,540.642,538.848,0.0
52843.0,STARLINK-4188,PAYLOAD,2023-11-11 04:36:06,15.08851206,0.0001426,53.2163,247.6688,98.4557,261.6597,0.00033099,4.985e-05,0.0,0 STARLINK-4188,1 52843U 22062P   23315.19174731  .00004985  00000-0  33099-3 0  9994,2 52843  53.2163 247.6688 0001426  98.4557 261.6597 15.08851206 78036,6917.846,95.437,540.698,538.725,0.0
52843.0,STARLINK-4188,PAYLOAD,2023-11-11 12:33:02,15.08846452,0.0001557,53.2172,246.1785,83.8453,276.2717,0.00039101,5.941e-05,0.0,0 STARLINK-4188,1 52843U 22062P   23315.52294907  .00005941  00000-0  39101-3 0  9992,2 52843  53.2172 246.1785 0001557  83.8453 276.2717 15.08846452 77599,6917.861,95.437,540.803,538.649,0.0
52843.0,STARLINK-4188,PAYLOAD,2023-11-11 18:54:35,15.08844518,0.0002015,53.2158,244.9919,85.4034,274.7188,0.00026609,3.95e-05,0.0,0 STARLINK-4188,1 52843U 22062P   23315.78791249  .00003950  00000-0  26609-3 0  9998,2 52843  53.2158 244.9919 0002015  85.4034 274.7188 15.08844518 78127,6917.867,95.437,541.126,538.338,0.0
52843.0,STARLINK-4188,PAYLOAD,2023-11-12 02:51:31,15.08836972,0.000136,53.2164,243.5046,86.9154,273.1994,7.1469e-05,8.5e-06,0.0,0 STARLINK-4188,1 52843U 22062P   23316.11911486  .00000850  00000-0  71469-4 0  9994,2 52843  53.2164 243.5046 0001360  86.9154 273.1994 15.08836972 78179,6917.89,95.438,540.695,538.814,0.0
52843.0,STARLINK-4188,PAYLOAD,2023-11-12 12:23:50,15.0883774,0.0001517,53.216,241.7194,84.7621,275.3544,9.2491e-05,1.184e-05,0.0,0 STARLINK-4188,1 52843U 22062P   23316.51655578  .00001184  00000-0  92491-4 0  9994,2 52843  53.2160 241.7194 0001517  84.7621 275.3544 15.08837740 77749,6917.887,95.438,540.802,538.703,0.0
52843.0,STARLINK-4188,PAYLOAD,2023-11-13 02:42:18,15.08851423,0.0001514,53.2169,239.0415,89.2513,270.8653,0.000311,4.667e-05,0.0,0 STARLINK-4188,1 52843U 22062P   23317.11271121  .00004667  00000-0  31100-3 0  9997,2 52843  53.2169 239.0415 0001514  89.2513 270.8653 15.08851423 78321,6917.845,95.437,540.758,538.663,0.0
52843.0,STARLINK-4188,PAYLOAD,2023-11-13 12:14:37,15.08848533,0.0001638,53.2163,237.262,82.5844,277.5334,0.00038107,5.783e-05,0.0,0 STARLINK-4188,1 52843U 22062P   23317.51015368  .00005783  00000-0  38107-3 0  9994,2 52843  53.2163 237.2620 0001638  82.5844 277.5334 15.08848533 78387,6917.854,95.437,540.852,538.586,0.0
52843.0,STARLINK-4188,PAYLOAD,2023-11-14 00:57:42,15.0884754,0.0001567,53.2169,234.879,98.6723,261.4447,0.0002284,3.35e-05,0.0,0 STARLINK-4188,1 52843U 22062P   23318.04007196  .00003350  00000-0  22840-3 0  9998,2 52843  53.2169 234.8790 0001567  98.6723 261.4447 15.08847540 78462,6917.857,95.437,540.806,538.638,0.0
52843.0,STARLINK-4188,PAYLOAD,2023-11-14 12:05:24,15.08842752,0.0001653,53.2173,232.7977,91.375,268.7432,0.00013336,1.835e-05,0.0,0 STARLINK-4188,1 52843U 22062P   23318.50375499  .00001835  00000-0  13336-3 0  9999,2 52843  53.2173 232.7977 0001653  91.3750 268.7432 15.08842752 78045,6917.872,95.437,540.881,538.593,0.0
52843.0,STARLINK-4188,PAYLOAD,2023-11-14 18:26:57,15.08840843,0.0001895,53.2178,231.6084,95.2311,264.8897,5.403e-05,5.72e-06,0.0,0 STARLINK-4188,1 52843U 22062P   23318.76871644  .00000572  00000-0  54030-4 0  9994,2 52843  53.2178 231.6084 0001895  95.2311 264.8897 15.08840843 78570,6917.878,95.438,541.054,538.432,0.0
52843.0,STARLINK-4188,PAYLOAD,2023-11-15 00:48:29,15.08841689,0.0001726,53.2178,230.4197,91.3217,268.7973,3.1931e-05,2.2e-06,0.0,0 STARLINK-4188,1 52843U 22062P   23319.03367545  .00000220  00000-0  31931-4 0  9990,2 52843  53.2178 230.4197 0001726  91.3217 268.7973 15.08841689 78125,6917.875,95.437,540.934,538.546,0.0
52843.0,STARLINK-4188,PAYLOAD,2023-11-15 18:17:44,15.08844498,0.0001861,53.2176,227.1483,99.1653,260.955,0.00012332,1.675e-05,0.0,0 STARLINK-4188,1 52843U 22062P   23319.76231525  .00001675  00000-0  12332-3 0  9996,2 52843  53.2176 227.1483 0001861  99.1653 260.9550 15.08844498 78232,6917.867,95.437,541.019,538.444,0.0
52843.0,STARLINK-4188,PAYLOAD,2023-11-16 00:39:16,15.08850274,0.0001498,53.2155,225.9596,93.8659,266.2504,0.00034189,5.159e-05,0.0,0 STARLINK-4188,1 52843U 22062P   23320.02727315  .00005159  00000-0  34189-3 0  9999,2 52843  53.2155 225.9596 0001498  93.8659 266.2504 15.08850274 78768,6917.849,95.437,540.75,538.678,0.0
52843.0,STARLINK-4188,PAYLOAD,2023-11-17 00:30:03,15.08842231,0.0001482,53.2155,221.5009,91.0483,269.0679,0.00014828,2.073e-05,0.0,0 STARLINK-4188,1 52843U 22062P   23321.02087705  .00002073  00000-0  14828-3 0  9992,2 52843  53.2155 221.5009 0001482  91.0483 269.0679 15.08842231 78912,6917.874,95.437,540.764,538.713,0.0
52843.0,STARLINK-4188,PAYLOAD,2023-11-17 10:02:22,15.0883912,0.000145,53.2151,219.7152,89.7253,270.3905,6.1857e-05,6.97e-06,0.0,0 STARLINK-4188,1 52843U 22062P   23321.41831811  .00000697  00000-0  61857-4 0  9995,2 52843  53.2151 219.7152 0001450  89.7253 270.3905 15.08839120 78482,6917.883,95.438,540.751,538.745,0.0
52843.0,STARLINK-4188,PAYLOAD,2023-11-17 17:59:18,15.08836578,0.0001282,53.2152,218.229,90.2827,269.8312,-5.0015e-05,-1.084e-05,0.0,0 STARLINK-4188,1 52843U 22062P   23321.74951813 -.00001084  00000-0 -50015-4 0  9993,2 52843  53.2152 218.2290 0001282  90.2827 269.8312 15.08836578 79027,6917.891,95.438,540.643,538.869,0.0
52843.0,STARLINK-4188,PAYLOAD,2023-11-17 22:45:27,15.08842283,0.0001531,53.2157,217.3359,92.7688,267.348,3.2234e-05,2.25e-06,0.0,0 STARLINK-4188,1 52843U 22062P   23321.94823653  .00000225  00000-0  32234-4 0  9992,2 52843  53.2157 217.3359 0001531  92.7688 267.3480 15.08842283 78564,6917.873,95.437,540.798,538.679,0.0
52843.0,STARLINK-4188,PAYLOAD,2023-11-18 09:53:09,15.08841866,0.0001536,53.2164,215.2553,88.9088,271.208,-2.4737e-05,-6.82e-06,0.0,0 STARLINK-4188,1 52843U 22062P   23322.41191687 -.00000682  00000-0 -24737-4 0  9998,2 52843  53.2164 215.2553 0001536  88.9088 271.2080 15.08841866 78635,6917.875,95.437,540.802,538.677,0.0
52843.0,STARLINK-4188,PAYLOAD,2023-11-18 16:14:42,15.08836438,0.0001586,53.2165,214.0661,85.3231,274.7942,9.6913e-05,1.255e-05,0.0,0 STARLINK-4188,1 52843U 22062P   23322.67688068  .00001255  00000-0  96913-4 0  9990,2 52843  53.2165 214.0661 0001586  85.3231 274.7942 15.08836438 78677,6917.891,95.438,540.853,538.659,0.0
52843.0,STARLINK-4188,PAYLOAD,2023-11-19 01:47:01,15.08834859,0.0001568,53.2177,212.2818,86.1189,273.9983,0.00011213,1.497e-05,0.0,0 STARLINK-4188,1 52843U 22062P   23323.07432471  .00001497  00000-0  11213-3 0  9997,2 52843  53.2177 212.2818 0001568  86.1189 273.9983 15.08834859 79228,6917.896,95.438,540.846,538.676,0.0
52843.0,STARLINK-4188,PAYLOAD,2023-11-19 09:43:57,15.08839648,0.0001566,53.2177,210.795,86.1029,274.0142,0.0001421,1.974e-05,0.0,0 STARLINK-4188,1 52843U 22062P   23323.40552282  .00001974  00000-0  14210-3 0  9997,2 52843  53.2177 210.7950 0001566  86.1029 274.0142 15.08839648 78789,6917.881,95.438,540.83,538.663,0.0
52843.0,STARLINK-4188,PAYLOAD,2023-11-19 20:51:38,15.08845201,0.0001565,53.2176,208.7135,87.0122,273.105,0.0001461,2.038e-05,0.0,0 STARLINK-4188,1 52843U 22062P   23323.86919787  .00002038  00000-0  14610-3 0  9990,2 52843  53.2176 208.7135 0001565  87.0122 273.1050 15.08845201 78851,6917.864,95.437,540.812,538.647,0.0
52843.0,STARLINK-4188,PAYLOAD,2023-11-20 01:37:47,15.08848584,0.0001529,53.2169,207.8209,84.823,275.2936,0.00014484,2.018e-05,0.0,0 STARLINK-4188,1 52843U 22062P   23324.06791511  .00002018  00000-0  14484-3 0  9993,2 52843  53.2169 207.8209 0001529  84.8230 275.2936 15.08848584 79371,6917.854,95.437,540.777,538.661,0.0
52843.0,STARLINK-4188,PAYLOAD,2023-11-20 09:34:44,15.08842528,0.0001588,53.2179,206.3348,81.7972,278.32,0.00010565,1.394e-05,0.0,0 STARLINK-4188,1 52843U 22062P   23324.39912075  .00001394  00000-0  10565-3 0  9991,2 52843  53.2179 206.3348 0001588  81.7972 278.3200 15.08842528 79420,6917.873,95.437,540.836,538.639,0.0
52843.0,STARLINK-4188,PAYLOAD,2023-11-20 22:17:49,15.08839821,0.0001509,53.2156,203.9553,81.9945,278.1219,8.3978e-05,1.049e-05,0.0,0 STARLINK-4188,1 52843U 22062P   23324.92904028  .00001049  00000-0  83978-4 0  9995,2 52843  53.2156 203.9553 0001509  81.9945 278.1219 15.08839821 79016,6917.881,95.438,540.79,538.702,0.0
